{"type":"FeatureCollection", "features": [
{"type":"Feature","geometry":{"type":"Polygon","coordinates":[[[-5.340728318999936,35.847357489000046],[-5.335560675999943,35.86237213700008],[-5.291859503999945,35.89052969000005],[-5.283070441999939,35.91168854400007],[-5.309315558999913,35.900824286000045],[-5.327381964999915,35.90424225500004],[-5.344105597999942,35.91474030200004],[-5.366200324999909,35.92475006700005],[-5.385161912999934,35.92617422100005],[-5.398858678999886,35.924503853000076],[-5.389717976999862,35.90204742500002],[-5.378400837999891,35.881686910000084],[-5.362897908999884,35.863806865000114],[-5.340728318999936,35.847357489000046]]]},"properties":{"featurecla":"Admin-1 states provinces","scalerank":3,"adm1_code":"ESP-5815","diss_me":5815,"ADM0_A3":"ES-CE","wikipedia":null,"iso_a2":"ES","adm0_sr":5,"NAME":"Ceuta","name_alt":null,"name_local":null,"type":"Ciudades Autónomas","type_en":"Autonomous City","code_local":null,"code_hasc":"ES.CE","note":null,"hasc_maybe":null,"region":"Ceuta","region_cod":"ES.CE","provnum_ne":23,"gadm_level":1,"check_me":20,"datarank":3,"abbrev":null,"postal":"CE","area_sqkm":0,"sameascity":9,"labelrank":9,"name_len":5,"mapcolor9":5,"mapcolor13":5,"fips":"SP00","fips_alt":"SP|","woe_id":55862983,"woe_label":"Ceuta Province, ES, Spain","woe_name":"Ceuta","latitude":35.8803,"longitude":-5.341,"sov_a3":"ESP","adm0_a3":"ES-CE","adm0_label":5,"admin":"Spain","geonunit":null,"gu_a3":null,"gn_id":8335119,"gn_name":"Ceuta","gns_id":-99,"gns_name":null,"gn_level":2,"gn_region":null,"gn_a1_code":"ES.CE","region_sub":null,"sub_code":null,"gns_level":1,"gns_lang":null,"gns_adm1":null,"gns_region":null,"min_label":7.7,"max_label":11,"min_zoom":7.7,"wikidataid":"Q5823","name_ar":"سبتة","name_bn":"সিউচা","name_de":"Ceuta","name_en":"Ceuta","name_es":"Ceuta","name_fr":"Ceuta","name_el":"Θέουτα","name_hi":"सेउटा","name_hu":"Ceuta","name_id":"Ceuta","name_it":"Ceuta","name_ja":"セウタ","name_ko":"세우타","name_nl":"Ceuta","name_pl":"Ceuta","name_pt":"Ceuta","name_ru":"Сеута","name_sv":"Ceuta","name_tr":"Ceuta","name_vi":"Ceuta","name_zh":"休达","ne_id":1159310507,"name_he":"סאוטה","name_uk":"Сеута","name_ur":"سبته","name_fa":"سبته","name_zht":"休達","FCLASS_ISO":null,"FCLASS_US":null,"FCLASS_FR":null,"FCLASS_RU":null,"FCLASS_ES":null,"FCLASS_CN":null,"FCLASS_TW":null,"FCLASS_IN":null,"FCLASS_NP":null,"FCLASS_PK":null,"FCLASS_DE":null,"FCLASS_GB":null,"FCLASS_BR":null,"FCLASS_IL":null,"FCLASS_PS":null,"FCLASS_SA":null,"FCLASS_EG":null,"FCLASS_MA":null,"FCLASS_PT":null,"FCLASS_AR":null,"FCLASS_JP":null,"FCLASS_KO":null,"FCLASS_VN":null,"FCLASS_TR":null,"FCLASS_ID":null,"FCLASS_PL":null,"FCLASS_GR":null,"FCLASS_IT":null,"FCLASS_NL":null,"FCLASS_SE":null,"FCLASS_BD":null,"FCLASS_UA":null,"FCLASS_TLC":null}}
]}