{"type":"FeatureCollection", "features": [
{"type":"Feature","geometry":{"type":"Polygon","coordinates":[[[-60.81041419199994,14.46198151200008],[-60.81041419199994,14.46873607000009],[-60.81663977799991,14.480902411000045],[-60.81981360599991,14.496649481000077],[-60.82526607999995,14.51040273600006],[-60.83836829299992,14.51658763200004],[-60.83507239499994,14.521185614000046],[-60.83340410099993,14.524359442000048],[-60.830922003999945,14.527085679000038],[-60.824777798999946,14.530218817000048],[-60.83299719999991,14.54100169500009],[-60.83641516799992,14.55296458500004],[-60.83584550699993,14.565659898000092],[-60.832142706999946,14.578599351000037],[-60.84520423099991,14.571234442000048],[-60.844309048999946,14.579494533000059],[-60.844960089999915,14.58860911700009],[-60.84837805899991,14.596096096000053],[-60.855458136999914,14.599107164000088],[-60.86506100199995,14.601711330000057],[-60.86876380099994,14.607611395000049],[-60.87022864499994,14.614447333000044],[-60.873158331999946,14.619614976000037],[-60.89338131399995,14.630804755000042],[-60.90103105399993,14.63857656500005],[-60.90729732999995,14.65375397300005],[-60.9016820949999,14.655910549000055],[-60.89830481699994,14.658026434000078],[-60.89435787699995,14.659816799000055],[-60.886789516999954,14.660549221000053],[-60.92027747299994,14.67487213700008],[-60.92886308499993,14.66351959800005],[-60.937489386999914,14.666408596000053],[-60.93927975199995,14.674994208000044],[-60.92711341099994,14.68109772300005],[-60.93455969999991,14.68846263200004],[-60.90729732999995,14.702826239000046],[-60.912668423999946,14.708563544000071],[-60.91893469999991,14.712225653000075],[-60.92617753799993,14.712713934000078],[-60.93455969999991,14.70897044500009],[-60.93667558499993,14.731268622000073],[-60.93382727799991,14.75031159100007],[-60.92617753799993,14.755560614000046],[-60.914133266999954,14.73631419500009],[-60.89297441299993,14.757391669000071],[-60.895375128999945,14.763820705000057],[-60.89244544199994,14.767767645000049],[-60.88630123599995,14.771633205000057],[-60.87930253799993,14.777289130000042],[-60.903187628999945,14.777085679000038],[-60.92658443899995,14.771144924000055],[-60.94688880099994,14.761379299000055],[-60.96129309799994,14.749945380000042],[-60.97899329299992,14.784735419000071],[-60.99063066299993,14.787909247000073],[-60.99567623599995,14.795355536000045],[-60.998158331999946,14.804185289000088],[-61.00226803299995,14.811428127000056],[-61.01862545499995,14.82172272300005],[-61.057850714999915,14.838690497000073],[-61.10195878799993,14.86619700700004],[-61.13589433499993,14.876898505000042],[-61.17096920499995,14.876369533000059],[-61.210601365999935,14.854437567000048],[-61.21947180899991,14.846502997000073],[-61.22618567599994,14.835516669000071],[-61.22883053299995,14.821966864000046],[-61.22618567599994,14.807766018000052],[-61.21910559799994,14.795477606000077],[-61.19054114499994,14.76634349200009],[-61.18297278599994,14.756415106000077],[-61.17711341099994,14.744940497000073],[-61.17479407499991,14.732896226000037],[-61.176665818999936,14.726141669000071],[-61.18004309799994,14.719671942000048],[-61.181630011999914,14.713039455000057],[-61.17788652299993,14.705877997000073],[-61.17357337099992,14.701239325000074],[-61.17023678299995,14.696437893000052],[-61.168080206999946,14.691066799000055],[-61.16734778599994,14.684759833000044],[-61.15957597599993,14.666937567000048],[-61.14159094999991,14.650091864000046],[-61.10586503799993,14.626450914000088],[-61.10220292899993,14.622219143000052],[-61.09593665299991,14.610256252000056],[-61.09162350199995,14.605943101000037],[-61.085926886999914,14.604641018000052],[-61.06493079299992,14.605943101000037],[-61.05426998599995,14.605129299000055],[-61.04356848899994,14.60545482000009],[-61.03140214799993,14.607814846000053],[-61.016468878999945,14.612779039000088],[-61.01431230399993,14.595851955000057],[-61.00698808499993,14.581854559000078],[-60.99937903599994,14.57135651200008],[-60.99600175699993,14.565008856000077],[-61.00332597599993,14.550523179000038],[-61.01773027299993,14.545314846000053],[-61.033273891999954,14.54987213700008],[-61.043812628999945,14.565008856000077],[-61.05231686099995,14.557074286000045],[-61.07852128799993,14.544582424000055],[-61.10586503799993,14.51658763200004],[-61.09679114499994,14.511542059000078],[-61.09239661399994,14.508286851000037],[-61.0911352199999,14.50421784100007],[-61.09162350199995,14.496771552000041],[-61.069569464999915,14.46670156500005],[-61.06118730399993,14.46198151200008],[-61.04637610599991,14.464178778000075],[-61.021595831999946,14.474025783000059],[-61.005970831999946,14.476263739000046],[-60.94762122299994,14.46873607000009],[-60.920033331999946,14.47337474200009],[-60.9134008449999,14.47211334800005],[-60.914133266999954,14.46198151200008],[-60.898101365999935,14.460882880000042],[-60.88223222599993,14.470526434000078],[-60.86851966099994,14.475978908000059],[-60.85887610599991,14.46198151200008],[-60.85985266799992,14.44672272300005],[-60.86949622299994,14.441473700000074],[-60.88076738199993,14.437974351000037],[-60.886789516999954,14.427801825000074],[-60.882476365999935,14.413275458000044],[-60.87059485599991,14.40810781500005],[-60.85643469999991,14.409369208000044],[-60.84520423099991,14.414129950000074],[-60.834828253999945,14.427557684000078],[-60.82266191299993,14.456691799000055],[-60.81041419199994,14.46198151200008]]]},"properties":{"featurecla":"Admin-1 states provinces","scalerank":3,"adm1_code":"FRA-1442","diss_me":1442,"ADM0_A3":"FR-MQ","wikipedia":null,"iso_a2":"FR","adm0_sr":1,"NAME":"Martinique","name_alt":null,"name_local":null,"type":"Overseas département","type_en":"Overseas department","code_local":null,"code_hasc":"MQ.X00~","note":null,"hasc_maybe":null,"region":"Martinique","region_cod":"FR-MTQ","provnum_ne":2,"gadm_level":1,"check_me":20,"datarank":8,"abbrev":null,"postal":"FF","area_sqkm":0,"sameascity":-99,"labelrank":4,"name_len":10,"mapcolor9":9,"mapcolor13":11,"fips":"MB**","fips_alt":null,"woe_id":23424884,"woe_label":null,"woe_name":"Martinique","latitude":14.7245,"longitude":-61.064,"sov_a3":"FR1","adm0_a3":"FR-MQ","adm0_label":7,"admin":"France","geonunit":"Martinique","gu_a3":"MTQ","gn_id":6690604,"gn_name":"Martinique","gns_id":-1554447,"gns_name":"Martinique, Departement de la","gn_level":2,"gn_region":null,"gn_a1_code":"FR.972","region_sub":null,"sub_code":null,"gns_level":1,"gns_lang":"fra","gns_adm1":null,"gns_region":"MB00","min_label":8,"max_label":11,"min_zoom":8,"wikidataid":"Q17054","name_ar":"مارتينيك","name_bn":"মার্তিনিক","name_de":"Martinique","name_en":"Martinique","name_es":"Martinica","name_fr":"Martinique","name_el":"Μαρτινίκα","name_hi":"मार्टीनिक","name_hu":"Martinique","name_id":"Martinik","name_it":"Martinica","name_ja":"マルティニーク","name_ko":"마르티니크","name_nl":"Martinique","name_pl":"Martynika","name_pt":"Martinica","name_ru":"Мартиника","name_sv":"Martinique","name_tr":"Martinik","name_vi":"Martinique","name_zh":"马提尼克","ne_id":1159311599,"name_he":"מרטיניק","name_uk":"Мартиніка","name_ur":"مارٹینیک","name_fa":"مارتینیک","name_zht":"馬丁尼克","FCLASS_ISO":null,"FCLASS_US":null,"FCLASS_FR":null,"FCLASS_RU":null,"FCLASS_ES":null,"FCLASS_CN":null,"FCLASS_TW":null,"FCLASS_IN":null,"FCLASS_NP":null,"FCLASS_PK":null,"FCLASS_DE":null,"FCLASS_GB":null,"FCLASS_BR":null,"FCLASS_IL":null,"FCLASS_PS":null,"FCLASS_SA":null,"FCLASS_EG":null,"FCLASS_MA":null,"FCLASS_PT":null,"FCLASS_AR":null,"FCLASS_JP":null,"FCLASS_KO":null,"FCLASS_VN":null,"FCLASS_TR":null,"FCLASS_ID":null,"FCLASS_PL":null,"FCLASS_GR":null,"FCLASS_IT":null,"FCLASS_NL":null,"FCLASS_SE":null,"FCLASS_BD":null,"FCLASS_UA":null,"FCLASS_TLC":null}}
]}