{"type":"FeatureCollection", "features": [
{"type":"Feature","geometry":{"type":"Polygon","coordinates":[[[-68.21153723899994,12.228094794000071],[-68.22052975199995,12.231146552000041],[-68.25251217399995,12.235541083000044],[-68.31484941299993,12.264837958000044],[-68.33189856699994,12.269029039000088],[-68.34044348899994,12.274969794000071],[-68.36148027299993,12.30219147300005],[-68.37661699099993,12.310044664000088],[-68.39045162699995,12.310207424000055],[-68.40005449099993,12.304388739000046],[-68.40648352799991,12.294623114000046],[-68.41075598899994,12.282700914000088],[-68.40330969999991,12.276516018000052],[-68.41738847599993,12.257025458000044],[-68.41071529899995,12.240301825000074],[-68.39183508999992,12.227769273000092],[-68.36978105399993,12.221258856000077],[-68.32127844999991,12.21385325700004],[-68.30256100199995,12.202948309000078],[-68.28726152299993,12.18032461100006],[-68.28221594999991,12.159898179000038],[-68.28282630099994,12.139593817000048],[-68.28726152299993,12.108303127000056],[-68.28538977799991,12.09007396000004],[-68.28062903599994,12.072211005000042],[-68.25967363199993,12.02806224200009],[-68.25422115799995,12.023627020000049],[-68.24254309799994,12.022040106000077],[-68.23729407499991,12.02680084800005],[-68.23184160099993,12.037990627000056],[-68.22752844999991,12.050726630000042],[-68.22581946499992,12.060248114000046],[-68.22834225199995,12.069973049000055],[-68.23835201699995,12.095770575000074],[-68.23884029899995,12.10455963700008],[-68.23216712099992,12.110744533000059],[-68.21393795499995,12.111802476000037],[-68.20531165299991,12.11823151200008],[-68.20360266799992,12.13776276200008],[-68.21084550699993,12.19009023600006],[-68.20156816299993,12.200832424000055],[-68.19001217399995,12.204820054000038],[-68.19420325399994,12.21393463700008],[-68.20466061099995,12.223211981000077],[-68.21153723899994,12.228094794000071]]]},"properties":{"featurecla":"Admin-1 states provinces","scalerank":10,"adm1_code":"NLD-5149","diss_me":5149,"ADM0_A3":"NL-BQ1","wikipedia":"http://en.wikipedia.org/wiki/Bonaire","iso_a2":"NL","adm0_sr":3,"NAME":"Bonaire","name_alt":null,"name_local":null,"type":"Bijzondere Gemeenten","type_en":"Special Municipality","code_local":null,"code_hasc":"BQ.BO","note":null,"hasc_maybe":null,"region":null,"region_cod":null,"provnum_ne":0,"gadm_level":0,"check_me":0,"datarank":10,"abbrev":null,"postal":null,"area_sqkm":0,"sameascity":-99,"labelrank":20,"name_len":7,"mapcolor9":2,"mapcolor13":9,"fips":null,"fips_alt":null,"woe_id":24549811,"woe_label":"Bonaire, AN, Netherlands Antilles","woe_name":"Bonaire","latitude":12.2314,"longitude":-68.3029,"sov_a3":"NL1","adm0_a3":"NL-BQ1","adm0_label":6,"admin":"Caribbean Netherlands","geonunit":null,"gu_a3":"NLD","gn_id":7609816,"gn_name":"Bonaire","gns_id":0,"gns_name":null,"gn_level":1,"gn_region":null,"gn_a1_code":"NL.BO","region_sub":null,"sub_code":null,"gns_level":0,"gns_lang":null,"gns_adm1":null,"gns_region":null,"min_label":11,"max_label":11,"min_zoom":8,"wikidataid":"Q25396","name_ar":"بونير","name_bn":"বোনাইর","name_de":"Bonaire","name_en":"Bonaire","name_es":"Bonaire","name_fr":"Bonaire","name_el":"Μποναίρ","name_hi":"बोनेयेर","name_hu":"Bonaire","name_id":"Bonaire","name_it":"Bonaire","name_ja":"ボネール島","name_ko":"보네르섬","name_nl":"Bonaire","name_pl":"Bonaire","name_pt":"Bonaire","name_ru":"Бонэйр","name_sv":"Bonaire","name_tr":"Bonaire","name_vi":"Bonaire","name_zh":"博奈尔","ne_id":1159315527,"name_he":"בונייר","name_uk":"Бонайре","name_ur":"بونایر","name_fa":"بونیر","name_zht":"波奈","FCLASS_ISO":null,"FCLASS_US":null,"FCLASS_FR":null,"FCLASS_RU":null,"FCLASS_ES":null,"FCLASS_CN":null,"FCLASS_TW":null,"FCLASS_IN":null,"FCLASS_NP":null,"FCLASS_PK":null,"FCLASS_DE":null,"FCLASS_GB":null,"FCLASS_BR":null,"FCLASS_IL":null,"FCLASS_PS":null,"FCLASS_SA":null,"FCLASS_EG":null,"FCLASS_MA":null,"FCLASS_PT":null,"FCLASS_AR":null,"FCLASS_JP":null,"FCLASS_KO":null,"FCLASS_VN":null,"FCLASS_TR":null,"FCLASS_ID":null,"FCLASS_PL":null,"FCLASS_GR":null,"FCLASS_IT":null,"FCLASS_NL":null,"FCLASS_SE":null,"FCLASS_BD":null,"FCLASS_UA":null,"FCLASS_TLC":null}}
]}