{"type":"FeatureCollection", "features": [
{"type":"Feature","geometry":{"type":"Polygon","coordinates":[[[-63.23843339799993,17.646918036000045],[-63.248931443999936,17.640366929000038],[-63.25133216099994,17.62376536700009],[-63.238392706999946,17.61469147300005],[-63.22948157499991,17.61823151200008],[-63.22370357999995,17.62921784100007],[-63.23029537699995,17.642320054000038],[-63.23843339799993,17.646918036000045]]]},"properties":{"featurecla":"Admin-1 states provinces","scalerank":10,"adm1_code":"NLD-5147","diss_me":5147,"ADM0_A3":"NL-BQ2","wikipedia":"http://en.wikipedia.org/wiki/Saba","iso_a2":"NL","adm0_sr":3,"NAME":"Saba","name_alt":null,"name_local":null,"type":"Bijzondere Gemeenten","type_en":"Special Municipality","code_local":null,"code_hasc":"BQ.SB","note":null,"hasc_maybe":null,"region":null,"region_cod":null,"provnum_ne":0,"gadm_level":0,"check_me":0,"datarank":10,"abbrev":null,"postal":null,"area_sqkm":0,"sameascity":-99,"labelrank":20,"name_len":4,"mapcolor9":2,"mapcolor13":0,"fips":null,"fips_alt":null,"woe_id":24549808,"woe_label":null,"woe_name":"Saba","latitude":17.6325,"longitude":-63.2371,"sov_a3":"NL1","adm0_a3":"NL-BQ2","adm0_label":8,"admin":"Netherlands","geonunit":null,"gu_a3":"NLD","gn_id":7610358,"gn_name":"Saba","gns_id":0,"gns_name":null,"gn_level":1,"gn_region":null,"gn_a1_code":"NL.SB","region_sub":null,"sub_code":null,"gns_level":0,"gns_lang":null,"gns_adm1":null,"gns_region":null,"min_label":11,"max_label":11,"min_zoom":8,"wikidataid":"Q25528","name_ar":"سابا","name_bn":"সাবা","name_de":"Saba","name_en":"Saba","name_es":"Saba","name_fr":"Saba","name_el":"Σάμπα","name_hi":"साबा","name_hu":"Saba","name_id":"Saba","name_it":"Saba","name_ja":"サバ島","name_ko":"사바섬","name_nl":"Saba","name_pl":"Saba","name_pt":"Saba","name_ru":"Саба","name_sv":"Saba","name_tr":"Saba","name_vi":"Saba","name_zh":"薩巴","ne_id":1159316511,"name_he":"סאבא","name_uk":"Саба","name_ur":"صبا","name_fa":"سیبا","name_zht":"薩巴","FCLASS_ISO":null,"FCLASS_US":null,"FCLASS_FR":null,"FCLASS_RU":null,"FCLASS_ES":null,"FCLASS_CN":null,"FCLASS_TW":null,"FCLASS_IN":null,"FCLASS_NP":null,"FCLASS_PK":null,"FCLASS_DE":null,"FCLASS_GB":null,"FCLASS_BR":null,"FCLASS_IL":null,"FCLASS_PS":null,"FCLASS_SA":null,"FCLASS_EG":null,"FCLASS_MA":null,"FCLASS_PT":null,"FCLASS_AR":null,"FCLASS_JP":null,"FCLASS_KO":null,"FCLASS_VN":null,"FCLASS_TR":null,"FCLASS_ID":null,"FCLASS_PL":null,"FCLASS_GR":null,"FCLASS_IT":null,"FCLASS_NL":null,"FCLASS_SE":null,"FCLASS_BD":null,"FCLASS_UA":null,"FCLASS_TLC":null}}
]}