{"type":"FeatureCollection", "features": [
{"type":"Feature","geometry":{"type":"MultiPolygon","coordinates":[[[[-16.487049933999913,32.49168528900009],[-16.49205481699994,32.51715729400007],[-16.506662563999953,32.544175523000035],[-16.52525794199994,32.56720612200007],[-16.542347785999937,32.580511786000045],[-16.540760870999918,32.56850820500006],[-16.536773240999935,32.55801015800006],[-16.530425584999932,32.548529364000046],[-16.521839972999942,32.539496161000045],[-16.487049933999913,32.49168528900009]]],[[[-16.788685675999943,32.68667226800005],[-16.78221594999991,32.69611237200007],[-16.749989386999914,32.73061758000006],[-16.73786373599995,32.73810455900008],[-16.725087042999917,32.74115631700005],[-16.68976803299995,32.75486888200004],[-16.672678188999953,32.75861237200007],[-16.682484503999945,32.76463450700004],[-16.693023240999935,32.76666901200008],[-16.703684048999946,32.76463450700004],[-16.713612433999913,32.75861237200007],[-16.730132615999935,32.766791083000044],[-16.74746660099993,32.770819403000075],[-16.785633917999917,32.77228424700007],[-16.797474738999938,32.77456289300005],[-16.808705206999946,32.78001536700009],[-16.86074785099993,32.81321849200009],[-16.872873501999948,32.81745026200008],[-16.903065558999913,32.83633047100005],[-16.919748501999948,32.84121328300006],[-16.957875128999945,32.83779531500005],[-16.97996985599991,32.833238023000035],[-16.99478105399993,32.82754140800006],[-17.01431230399993,32.81704336100006],[-17.041167772999927,32.812201239000046],[-17.067982550999943,32.814154364000046],[-17.093902147999927,32.82770416900007],[-17.11554928299995,32.83344147300005],[-17.121693488999938,32.83437734600005],[-17.13194739499994,32.839056708000044],[-17.15575110599991,32.86123281500005],[-17.166127081999946,32.868475653000075],[-17.177561001999948,32.872748114000046],[-17.184885219999956,32.87417226800005],[-17.191395636999914,32.872748114000046],[-17.20026607999995,32.868475653000075],[-17.224964972999942,32.83930084800005],[-17.231271938999953,32.83437734600005],[-17.246449347999942,32.82859935100004],[-17.252105272999927,32.814520575000074],[-17.24990800699993,32.796535549000055],[-17.24120032499991,32.77912018400008],[-17.214466925999943,32.75063711100006],[-17.18065344999991,32.72597890800006],[-17.142974412999934,32.70555247600004],[-16.97679602799991,32.64720286700009],[-16.89590410099993,32.64158763200004],[-16.847808397999927,32.64402903900009],[-16.806385870999918,32.65680573100008],[-16.788685675999943,32.68667226800005]]],[[[-16.339955206999946,33.05719635600008],[-16.32567298099991,33.06582265800006],[-16.31078040299991,33.066066799000055],[-16.275380011999914,33.060248114000046],[-16.286000128999945,33.06753164300005],[-16.289784308999913,33.079413153000075],[-16.289133266999954,33.108710028000075],[-16.29588782499991,33.101263739000046],[-16.317128058999913,33.11078522300005],[-16.34129798099991,33.10594310100004],[-16.361683722999942,33.09031810100004],[-16.37413489499994,33.05817291900007],[-16.37987219999991,33.05133698100008],[-16.388010219999956,33.04734935100004],[-16.39834550699993,33.04661692900004],[-16.39834550699993,33.03978099200009],[-16.378285285999937,33.03204987200007],[-16.36432857999995,33.034369208000044],[-16.352691209999932,33.04376862200007],[-16.339955206999946,33.05719635600008]]],[[[-16.02798417899993,30.033596096000053],[-16.02725175699993,30.02960846600007],[-16.02301998599995,30.029242255000042],[-16.023101365999935,30.03229401200008],[-16.02798417899993,30.033596096000053]]],[[[-15.864409959999932,30.15253327000005],[-15.873443162999934,30.14354075700004],[-15.87413489499994,30.14166901200008],[-15.874094204999949,30.13971588700008],[-15.874745245999918,30.137925523000035],[-15.87022864499994,30.13617584800005],[-15.863270636999914,30.13467031500005],[-15.859771287999934,30.133286851000037],[-15.854969855999911,30.139593817000048],[-15.855458136999914,30.146918036000045],[-15.864409959999932,30.15253327000005]]]]},"properties":{"featurecla":"Admin-1 states provinces","scalerank":7,"adm1_code":"PRT-736","diss_me":736,"ADM0_A3":"PT-30","wikipedia":null,"iso_a2":"PT","adm0_sr":5,"NAME":"Madeira","name_alt":null,"name_local":null,"type":"Regiões autônoma","type_en":"Autonomous region","code_local":null,"code_hasc":"PT.MA","note":null,"hasc_maybe":null,"region":null,"region_cod":null,"provnum_ne":2,"gadm_level":1,"check_me":0,"datarank":6,"abbrev":null,"postal":"MA","area_sqkm":0,"sameascity":-99,"labelrank":7,"name_len":7,"mapcolor9":1,"mapcolor13":4,"fips":"PO10","fips_alt":null,"woe_id":2346570,"woe_label":"Madeira, PT, Portugal","woe_name":"Madeira","latitude":32.7427,"longitude":-16.9465,"sov_a3":"PRT","adm0_a3":"PT-30","adm0_label":5,"admin":"Portugal","geonunit":"Madeira","gu_a3":"PMD","gn_id":2593105,"gn_name":"Regiao Autonoma da Madeira","gns_id":6133109,"gns_name":"Madeira, Regiao Autonoma da","gn_level":1,"gn_region":null,"gn_a1_code":"PT.10","region_sub":null,"sub_code":null,"gns_level":1,"gns_lang":null,"gns_adm1":"PO10","gns_region":null,"min_label":7.7,"max_label":11,"min_zoom":7.7,"wikidataid":"Q26253","name_ar":"ماديرا","name_bn":"মাদিয়েরা","name_de":"Autonome Madeira","name_en":"Madeira","name_es":"Madeira","name_fr":"Madère","name_el":"Μαδέρα","name_hi":"मदेरा","name_hu":"Madeira-szigetek","name_id":"Madeira","name_it":"Madera","name_ja":"マデイラ諸島","name_ko":"마데이라 제도","name_nl":"Madeira","name_pl":"Madera","name_pt":"da Madeira","name_ru":"Мадейра","name_sv":"Madeira","name_tr":"Madeira Adaları","name_vi":"Madeira","name_zh":"马德拉","ne_id":1159310443,"name_he":"מדיירה","name_uk":"Мадейра","name_ur":"مادیعیرا","name_fa":"مادیرا","name_zht":"馬德拉","FCLASS_ISO":null,"FCLASS_US":null,"FCLASS_FR":null,"FCLASS_RU":null,"FCLASS_ES":null,"FCLASS_CN":null,"FCLASS_TW":null,"FCLASS_IN":null,"FCLASS_NP":null,"FCLASS_PK":null,"FCLASS_DE":null,"FCLASS_GB":null,"FCLASS_BR":null,"FCLASS_IL":null,"FCLASS_PS":null,"FCLASS_SA":null,"FCLASS_EG":null,"FCLASS_MA":null,"FCLASS_PT":null,"FCLASS_AR":null,"FCLASS_JP":null,"FCLASS_KO":null,"FCLASS_VN":null,"FCLASS_TR":null,"FCLASS_ID":null,"FCLASS_PL":null,"FCLASS_GR":null,"FCLASS_IT":null,"FCLASS_NL":null,"FCLASS_SE":null,"FCLASS_BD":null,"FCLASS_UA":null,"FCLASS_TLC":null}}
]}