{"type":"FeatureCollection", "features": [
{"type":"Feature","geometry":{"type":"MultiPolygon","coordinates":[[[[1.52638326400006,38.67776762400007],[1.48609459700009,38.694566148000035],[1.437510613000086,38.749253648000035],[1.436534050000091,38.751613674000055],[1.436534050000091,38.754014390000066],[1.435394727000073,38.75535716400009],[1.43132571700005,38.75486888200004],[1.427907748000052,38.73936595300006],[1.418142123000052,38.72789134300007],[1.408029279000061,38.724485848000086],[1.401002263000066,38.73032634600008],[1.388612436000074,38.71911491700007],[1.382823113000086,38.71157461100006],[1.38648522200009,38.70766836100006],[1.393728061000047,38.70420970300006],[1.393321160000085,38.69627513200004],[1.388682488000086,38.68711985900006],[1.383474155000044,38.68040599200009],[1.383459549000065,38.67000002800006],[1.387550540000063,38.66237786100004],[1.382950333000053,38.64206092500007],[1.396976700000039,38.638646307000045],[1.412791680000055,38.64644583200004],[1.42904707100007,38.664943752000056],[1.438731316000087,38.67027415600006],[1.458085631000074,38.68134073900006],[1.474222865000058,38.67459664200004],[1.523448113000086,38.64940013200004],[1.557485750000069,38.64883885900008],[1.58139082100007,38.65306224200009],[1.582367384000065,38.67491282800006],[1.565683815000057,38.69148550500006],[1.52638326400006,38.67776762400007]]],[[[1.605967644000089,39.09129466400009],[1.597911004000082,39.09813060100004],[1.589691602000073,39.102769273000035],[1.578379754000082,39.10488515800006],[1.560394727000073,39.10582103100006],[1.553558790000068,39.10765208500004],[1.537119988000086,39.118028062000064],[1.522715691000087,39.11888255400004],[1.508636915000068,39.11436595300006],[1.499522332000083,39.10488515800006],[1.478688998000052,39.10773346600007],[1.450694207000083,39.10179271000004],[1.42318769600007,39.09056224200009],[1.403330925000091,39.07762278900009],[1.39193769600007,39.083319403000075],[1.372243686000047,39.07139720300006],[1.36304772200009,39.07762278900009],[1.35678144600007,39.07762278900009],[1.332530144000089,39.05723704600007],[1.317556186000047,39.04759349200009],[1.30445397200009,39.04344310100004],[1.292816602000073,39.033270575000074],[1.292246941000087,39.009873765000066],[1.300954623000052,38.96775950700004],[1.276866082000083,38.968003648000035],[1.26726321700005,38.966050523000035],[1.259938998000052,38.960923570000034],[1.248220248000052,38.96637604400007],[1.236827019000089,38.96515534100007],[1.226735873000052,38.960191148000035],[1.21843509200005,38.95408763200004],[1.227549675000091,38.94200267100007],[1.22429446700005,38.92735423400006],[1.212168816000087,38.903225002000056],[1.216644727000073,38.88507721600007],[1.22820071700005,38.87461985900006],[1.259938998000052,38.85789622600004],[1.266612175000091,38.870347398000035],[1.283457879000082,38.87461985900006],[1.300303582000083,38.87046946800007],[1.307790561000047,38.85789622600004],[1.31771894600007,38.85984935100004],[1.318614129000082,38.85911692900004],[1.32203209700009,38.85789622600004],[1.328868035000085,38.85789622600004],[1.34351647200009,38.86237213700008],[1.360850457000083,38.85191478100006],[1.370650433000094,38.83180940700004],[1.403104951000046,38.83227756300005],[1.404144727000073,38.856756903000075],[1.414728475000061,38.89062173700006],[1.428558790000068,38.896592515000066],[1.44499759200005,38.91315338700008],[1.448415561000047,38.90879954600007],[1.454925977000073,38.90403880400004],[1.45866946700005,38.90013255400004],[1.469493035000085,38.910264390000066],[1.497243686000047,38.921861070000034],[1.509776238000086,38.93016185100004],[1.541188998000052,38.96775950700004],[1.576182488000086,38.98582591400009],[1.58139082100007,38.99192942900004],[1.584646030000044,39.00743235900006],[1.593272332000083,39.02024974200009],[1.606455925000091,39.02838776200008],[1.623057488000086,39.02920156500005],[1.606944207000083,39.06236399900007],[1.600840691000087,39.08238353100006],[1.605967644000089,39.09129466400009]]],[[[3.354502800000091,39.784369208000044],[3.340342644000089,39.778998114000046],[3.30990644600007,39.755072333000044],[3.292491082000083,39.749701239000046],[3.223887566000087,39.749701239000046],[3.194834832000083,39.75499095300006],[3.162608269000089,39.76911041900007],[3.13648522200009,39.788763739000046],[3.124847852000073,39.81110260600008],[3.12631269600007,39.83185455900008],[3.133555535000085,39.839544989000046],[3.165212436000047,39.84589264500005],[3.181488477000073,39.85138580900008],[3.18718509200005,39.854356187000064],[3.19312584700009,39.85956452000005],[3.196462436000047,39.86713288000004],[3.195567254000082,39.87453847900008],[3.196787957000083,39.88121165600006],[3.20679772200009,39.886826890000066],[3.20679772200009,39.893011786000045],[3.13021894600007,39.87641022300005],[3.094737175000091,39.88121165600006],[3.096934441000087,39.91351959800005],[3.104340040000068,39.91351959800005],[3.115489129000082,39.90875885600008],[3.127452019000089,39.91669342700004],[3.140879754000082,39.92808665600006],[3.15560957100007,39.934027411000045],[3.168467644000089,39.936387437000064],[3.203623894000089,39.94916413000004],[3.21420332100007,39.95510488500008],[3.201345248000052,39.96051666900007],[3.198415561000047,39.95929596600007],[3.19312584700009,39.95510488500008],[3.17945397200009,39.96877676000008],[3.075694207000083,39.93610260600008],[3.020274285000085,39.92515696800007],[2.964121941000087,39.92096588700008],[2.93327884200005,39.914496161000045],[2.873057488000086,39.88349030200004],[2.843597852000073,39.87258535400008],[2.834157748000052,39.871161200000074],[2.813243035000085,39.87258535400008],[2.809580925000091,39.87055084800005],[2.803233269000089,39.86159902600008],[2.799652540000068,39.85956452000005],[2.78484134200005,39.856716213000084],[2.77320397200009,39.84963613500008],[2.761729363000086,39.84052155200004],[2.74740644600007,39.83161041900007],[2.717946811000047,39.82013580900008],[2.71062259200005,39.81854889500005],[2.703949415000068,39.814154364000046],[2.683604363000086,39.796210028000075],[2.679209832000083,39.79401276200008],[2.676036004000082,39.78908926000008],[2.651866082000083,39.77012767100007],[2.647471550000091,39.769232489000046],[2.635996941000087,39.77102285400008],[2.631358269000089,39.77012767100007],[2.629079623000052,39.766872463000084],[2.621918165000068,39.75446198100008],[2.617686394000089,39.749701239000046],[2.586599155000044,39.723822333000044],[2.56967207100007,39.71308014500005],[2.55241946700005,39.708685614000046],[2.532399936000047,39.706366278000075],[2.517588738000086,39.70014069200005],[2.468272332000083,39.659369208000044],[2.450450066000087,39.65033600500004],[2.42937259200005,39.64667389500005],[2.357676629000082,39.61188385600008],[2.351735873000052,39.59674713700008],[2.350759311000047,39.57648346600007],[2.355642123000052,39.558661200000074],[2.373708530000044,39.54718659100007],[2.382090691000087,39.52924225500004],[2.391856316000087,39.52374909100007],[2.398285352000073,39.52496979400007],[2.425954623000052,39.53742096600007],[2.431162957000083,39.52769603100006],[2.438161655000044,39.52521393400008],[2.445811394000089,39.52887604400007],[2.453949415000068,39.53742096600007],[2.480642123000052,39.51622142100007],[2.472178582000083,39.512152411000045],[2.469004754000082,39.50588613500008],[2.471690300000091,39.49791087400007],[2.473806187000093,39.49579498800006],[2.492686394000089,39.47024160400008],[2.520192905000044,39.47284577000005],[2.544932488000086,39.49298737200007],[2.555674675000091,39.520046291000085],[2.569102410000085,39.53152090100008],[2.633474155000044,39.55927155200004],[2.655284050000091,39.56472402600008],[2.681651238000086,39.558661200000074],[2.715098504000082,39.54352448100008],[2.74350019600007,39.52338288000004],[2.754893425000091,39.50263092700004],[2.739512566000087,39.47829824400009],[2.736582879000082,39.462103583000044],[2.751231316000087,39.454779364000046],[2.761729363000086,39.40021393400008],[2.786631707000083,39.37592194200005],[2.825450066000087,39.36359284100007],[2.912608269000089,39.358669338000084],[2.922373894000089,39.35972728100006],[2.938161655000044,39.36436595300006],[2.950043165000068,39.36550527600008],[2.958832227000073,39.36322663000004],[2.974457227000073,39.35346100500004],[2.984222852000073,39.35114166900007],[2.991384311000047,39.34727610900006],[2.994639519000089,39.337958075000074],[2.996755405000044,39.32697174700007],[3.00131269600007,39.317694403000075],[3.007334832000083,39.313747463000084],[3.022959832000083,39.30817291900007],[3.029307488000086,39.30463288000004],[3.056651238000086,39.27297597900008],[3.060801629000082,39.26906972900008],[3.06999759200005,39.27175527600008],[3.079112175000091,39.27688222900008],[3.083262566000087,39.28009674700007],[3.090993686000047,39.29006582200009],[3.129405144000089,39.315741278000075],[3.221039259000065,39.359890041000085],[3.252614780000044,39.38617584800005],[3.268809441000087,39.42755768400008],[3.272715691000087,39.42475006700005],[3.282481316000087,39.42011139500005],[3.291758660000085,39.475775458000044],[3.323252800000091,39.523871161000045],[3.365407748000052,39.56305573100008],[3.40601647200009,39.59198639500005],[3.398692254000082,39.60773346600007],[3.401866082000083,39.62323639500005],[3.413096550000091,39.63507721600007],[3.429942254000082,39.639837958000044],[3.443207227000073,39.645778713000084],[3.453868035000085,39.65969472900008],[3.467539910000085,39.687567450000074],[3.461436394000089,39.700059312000064],[3.464366082000083,39.70640696800007],[3.470550977000073,39.71031321800007],[3.47437584700009,39.71552155200004],[3.472666863000086,39.72357819200005],[3.469411655000044,39.73106517100007],[3.46851647200009,39.73932526200008],[3.47437584700009,39.749701239000046],[3.439789259000065,39.75197988500008],[3.383148634000065,39.77794017100007],[3.354502800000091,39.784369208000044]]],[[[4.302907748000052,39.92552317900004],[4.298024936000047,39.94196198100008],[4.285899285000085,39.944606838000084],[4.270111524000072,39.94375234600005],[4.254567905000044,39.94969310100004],[4.272390170000051,39.95534902600008],[4.273366733000046,39.969956773000035],[4.264903191000087,39.986395575000074],[4.254567905000044,39.99746328300006],[4.247487826000054,40.00039297100005],[4.232676629000082,40.00271230700008],[4.227224155000044,40.00490957200009],[4.216888868000069,40.012600002000056],[4.212494337000066,40.017238674000055],[4.20671634200005,40.02480703300006],[4.178640170000051,40.03884511900009],[4.172618035000085,40.04592519700009],[4.176524285000085,40.05923086100006],[4.170502149000072,40.06460195500006],[4.16382897200009,40.06057363500008],[4.16578209700009,40.04592519700009],[4.15593509200005,40.03465403900009],[4.148529493000069,40.02781810100004],[4.14226321700005,40.02480703300006],[4.135427280000044,40.028225002000056],[4.134857618000069,40.03571198100008],[4.136973504000082,40.043036200000074],[4.139089389000048,40.04592519700009],[4.116791212000066,40.05963776200008],[4.107839389000048,40.067613023000035],[4.105072462000066,40.079413153000075],[4.094330274000072,40.074733791000085],[4.077565951000054,40.06427643400008],[4.063405795000051,40.05955638200004],[4.052012566000087,40.05817291900007],[4.011892123000052,40.05955638200004],[3.915456576000054,40.051988023000035],[3.891530795000051,40.05955638200004],[3.821869337000066,40.04763418200008],[3.809499545000051,40.03538646000004],[3.807058139000048,40.02326080900008],[3.803151889000048,40.01813385600008],[3.803396030000044,40.01316966400009],[3.812917514000048,40.001206773000035],[3.82203209700009,39.99514394700009],[3.842377149000072,39.98940664300005],[3.850515170000051,39.98387278900009],[3.839121941000087,39.97557200700004],[3.83570397200009,39.96242910400008],[3.834890170000051,39.94798411700009],[3.830658399000072,39.936061916000085],[3.869313998000052,39.92552317900004],[3.941335483000046,39.936753648000035],[3.981374545000051,39.936061916000085],[4.015065951000054,39.925767320000034],[4.177175326000054,39.84332916900007],[4.248138868000069,39.816473700000074],[4.300059441000087,39.82176341400009],[4.302907748000052,39.887600002000056],[4.311778191000087,39.88418203300006],[4.319753451000054,39.87921784100007],[4.326263868000069,39.87343984600005],[4.330332879000082,39.867173570000034],[4.337087436000047,39.867173570000034],[4.328786655000044,39.88344961100006],[4.307302280000044,39.91054922100005],[4.302907748000052,39.92552317900004]]],[[[2.985366533000047,39.16617614000006],[2.980582428000048,39.185560431000056],[2.940424231000065,39.17193037800007],[2.913614193000058,39.15196267500005],[2.930866760000072,39.11817588900004],[2.962154470000087,39.11606223500007],[2.982307966000064,39.13918350800009],[2.985366533000047,39.16617614000006]]]]},"properties":{"featurecla":"Admin-1 states provinces","scalerank":3,"adm1_code":"ESP-5808","diss_me":5808,"ADM0_A3":"ES-PM","wikipedia":null,"iso_a2":"ES","adm0_sr":6,"NAME":"Baleares","name_alt":null,"name_local":null,"type":"Comunidad Autónoma","type_en":"Autonomous Community","code_local":null,"code_hasc":"ES.PM","note":null,"hasc_maybe":null,"region":"Islas Baleares","region_cod":"ES.PM","provnum_ne":1,"gadm_level":1,"check_me":20,"datarank":3,"abbrev":null,"postal":"PM","area_sqkm":0,"sameascity":-99,"labelrank":3,"name_len":8,"mapcolor9":5,"mapcolor13":5,"fips":"SP07","fips_alt":null,"woe_id":12602088,"woe_label":"Balearic Islands, ES, Spain","woe_name":"Islas Baleares","latitude":39.6162,"longitude":2.99156,"sov_a3":"ESP","adm0_a3":"ES-PM","adm0_label":3,"admin":"Spain","geonunit":null,"gu_a3":null,"gn_id":6424360,"gn_name":"Illes Balears","gns_id":-372237,"gns_name":"Islas Baleares, Comunidad Autonoma de las","gn_level":2,"gn_region":null,"gn_a1_code":"ES.PM","region_sub":null,"sub_code":null,"gns_level":1,"gns_lang":null,"gns_adm1":null,"gns_region":"SP07","min_label":7.7,"max_label":11,"min_zoom":7.7,"wikidataid":"Q5765","name_ar":"جزر البليار","name_bn":"বালেয়ার দ্বীপপুঞ্জ","name_de":"Balearische Inseln","name_en":"Balearic Islands","name_es":"Islas Baleares","name_fr":"Îles Baléares","name_el":"Βαλεαρίδες Νήσοι","name_hi":"बैलेरिक द्वीपसमूह","name_hu":"Baleár-szigetek","name_id":"Kepulauan Balears","name_it":"isole Baleari","name_ja":"バレアレス諸島","name_ko":"발레아레스 제도","name_nl":"Balearen","name_pl":"Baleary","name_pt":"Ilhas Baleares","name_ru":"Балеарские острова","name_sv":"Balearerna","name_tr":"Balear Adaları","name_vi":"Quần đảo Baleares","name_zh":"巴利阿里群岛","ne_id":1159308465,"name_he":"האיים הבלאריים","name_uk":"Балеарські острови","name_ur":"جزائر بلیبار","name_fa":"جزایر بالئاری","name_zht":"巴利亞利群島","FCLASS_ISO":null,"FCLASS_US":null,"FCLASS_FR":null,"FCLASS_RU":null,"FCLASS_ES":null,"FCLASS_CN":null,"FCLASS_TW":null,"FCLASS_IN":null,"FCLASS_NP":null,"FCLASS_PK":null,"FCLASS_DE":null,"FCLASS_GB":null,"FCLASS_BR":null,"FCLASS_IL":null,"FCLASS_PS":null,"FCLASS_SA":null,"FCLASS_EG":null,"FCLASS_MA":null,"FCLASS_PT":null,"FCLASS_AR":null,"FCLASS_JP":null,"FCLASS_KO":null,"FCLASS_VN":null,"FCLASS_TR":null,"FCLASS_ID":null,"FCLASS_PL":null,"FCLASS_GR":null,"FCLASS_IT":null,"FCLASS_NL":null,"FCLASS_SE":null,"FCLASS_BD":null,"FCLASS_UA":null,"FCLASS_TLC":null}}
]}