{"type":"FeatureCollection", "features": [
{"type":"Feature","geometry":{"type":"MultiPolygon","coordinates":[[[[45.26221764400009,-12.76336028399993],[45.275726759000065,-12.804864190999922],[45.28256269600007,-12.804864190999922],[45.28842207100007,-12.78834400799991],[45.29086347700007,-12.774021091999941],[45.28931725400008,-12.75986093499995],[45.28256269600007,-12.74342213299991],[45.27711022200003,-12.747491143999923],[45.26221764400009,-12.76336028399993]]],[[[45.20069420700008,-12.722914320999905],[45.18376712300005,-12.717950127999927],[45.15259850400008,-12.718194268999923],[45.138682488000086,-12.71493905999995],[45.128916863000086,-12.707452080999929],[45.11060631600009,-12.685804945999905],[45.09717858200008,-12.674493096999925],[45.09498131600009,-12.672051690999922],[45.09351647200003,-12.669040622999944],[45.090505405000044,-12.667087497999944],[45.083994988000086,-12.66765715899993],[45.090179884000065,-12.663262627999927],[45.092784050000034,-12.66187916499996],[45.09717858200008,-12.660821221999925],[45.09595787900008,-12.656508070999905],[45.094737175000034,-12.65357838299991],[45.090830925000034,-12.647230726999908],[45.04249108200008,-12.698418877999927],[45.042979363000086,-12.713962497999944],[45.04517662900008,-12.725192966999941],[45.049489780000044,-12.734307549999926],[45.056651238000086,-12.74342213299991],[45.067149285000085,-12.75009530999995],[45.07837975400008,-12.75359465899993],[45.08716881600009,-12.759698174999926],[45.090830925000034,-12.773858330999929],[45.09424889400009,-12.80282968499995],[45.098643425000034,-12.817478122999944],[45.104502800000034,-12.82594166499996],[45.104502800000034,-12.832777601999908],[45.097992384000065,-12.833428643999923],[45.083994988000086,-12.839043877999927],[45.113291863000086,-12.86337655999995],[45.12387129000007,-12.87509530999995],[45.131846550000034,-12.887383721999925],[45.13648522200003,-12.903903903999947],[45.13412519600007,-12.91692473799992],[45.12476647200003,-12.921482028999947],[45.10792076900009,-12.911716403999947],[45.09009850400008,-12.891045830999929],[45.083994988000086,-12.887383721999925],[45.072927280000044,-12.88836028399993],[45.06527754000007,-12.893161716999941],[45.062510613000086,-12.89853280999995],[45.08122806100005,-12.90829843499995],[45.090179884000065,-12.924004815999922],[45.08838951900009,-12.94036223799992],[45.070323113000086,-12.94890715899993],[45.070323113000086,-12.955010674999926],[45.084971550000034,-12.953708591999941],[45.094493035000085,-12.958184502999927],[45.09848066500007,-12.967868747999944],[45.09717858200008,-12.982354424999926],[45.10670006600009,-12.978122653999947],[45.113291863000086,-12.981052341999941],[45.12061608200008,-12.986260674999926],[45.131846550000034,-12.98919036299992],[45.14429772200003,-12.985772393999923],[45.153086785000085,-12.979668877999927],[45.15992272200003,-12.97861093499995],[45.16586347700007,-12.98919036299992],[45.17302493600005,-12.985039971999925],[45.178070509000065,-12.981052341999941],[45.182302280000044,-12.975762627999927],[45.18637129000007,-12.96884530999995],[45.16822350400008,-12.94426848799992],[45.17530358200008,-12.924004815999922],[45.19166100400008,-12.904961846999925],[45.20069420700008,-12.883965752999927],[45.20435631600009,-12.878513278999947],[45.210948113000086,-12.86532968499995],[45.21314537900008,-12.851820570999905],[45.19516035200007,-12.840508721999925],[45.18873131600009,-12.828789971999925],[45.188161655000044,-12.817071221999925],[45.19695071700005,-12.811700127999927],[45.22055097700007,-12.777520440999922],[45.224945509000065,-12.75953541499996],[45.22478274800005,-12.745700778999947],[45.21762129000007,-12.73406340899993],[45.20069420700008,-12.722914320999905]]]]},"properties":{"featurecla":"Admin-1 states provinces","scalerank":9,"adm1_code":"FRA-4602","diss_me":4602,"ADM0_A3":"FR-YT","wikipedia":null,"iso_a2":"FR","adm0_sr":4,"NAME":"Mayotte","name_alt":null,"name_local":null,"type":"Overseas département","type_en":"Overseas department","code_local":null,"code_hasc":"YT.YT","note":null,"hasc_maybe":null,"region":"Mayotte","region_cod":"FR-MAY","provnum_ne":0,"gadm_level":0,"check_me":20,"datarank":9,"abbrev":null,"postal":null,"area_sqkm":0,"sameascity":-99,"labelrank":20,"name_len":7,"mapcolor9":9,"mapcolor13":11,"fips":null,"fips_alt":null,"woe_id":23424886,"woe_label":null,"woe_name":"Mayotte","latitude":-12.7767,"longitude":45.2769,"sov_a3":"FR1","adm0_a3":"FR-YT","adm0_label":5,"admin":"France","geonunit":"Mayotte","gu_a3":"MYT","gn_id":1024031,"gn_name":null,"gns_id":-1187193,"gns_name":"Mayotte, Departement de","gn_level":0,"gn_region":null,"gn_a1_code":"FR.976","region_sub":null,"sub_code":null,"gns_level":1,"gns_lang":"fra","gns_adm1":null,"gns_region":"MF00","min_label":8,"max_label":11,"min_zoom":8,"wikidataid":"Q17063","name_ar":"مايوت","name_bn":"মায়োত","name_de":"Mayotte","name_en":"Mayotte","name_es":"Mayotte","name_fr":"Mayotte","name_el":"Μαγιότ","name_hi":"मेयोट","name_hu":"Mayotte","name_id":"Mayotte","name_it":"Mayotte","name_ja":"マヨット","name_ko":"마요트","name_nl":"Mayotte","name_pl":"Majotta","name_pt":"Mayotte","name_ru":"Майотта","name_sv":"Mayotte","name_tr":"Mayotte","name_vi":"Mayotte","name_zh":"马约特","ne_id":1159315621,"name_he":"מיוט","name_uk":"Майотта","name_ur":"مایوٹ","name_fa":"مایوت","name_zht":"马约特","FCLASS_ISO":null,"FCLASS_US":null,"FCLASS_FR":null,"FCLASS_RU":null,"FCLASS_ES":null,"FCLASS_CN":null,"FCLASS_TW":null,"FCLASS_IN":null,"FCLASS_NP":null,"FCLASS_PK":null,"FCLASS_DE":null,"FCLASS_GB":null,"FCLASS_BR":null,"FCLASS_IL":null,"FCLASS_PS":null,"FCLASS_SA":null,"FCLASS_EG":null,"FCLASS_MA":null,"FCLASS_PT":null,"FCLASS_AR":null,"FCLASS_JP":null,"FCLASS_KO":null,"FCLASS_VN":null,"FCLASS_TR":null,"FCLASS_ID":null,"FCLASS_PL":null,"FCLASS_GR":null,"FCLASS_IT":null,"FCLASS_NL":null,"FCLASS_SE":null,"FCLASS_BD":null,"FCLASS_UA":null,"FCLASS_TLC":null}}
]}