{"type":"FeatureCollection", "features": [
{"type":"Feature","geometry":{"type":"Polygon","coordinates":[[[-62.99714107999995,17.52562083500004],[-62.994699673999946,17.492132880000042],[-62.981085521999944,17.467723731000092],[-62.958723137999925,17.46457117400007],[-62.9489035709999,17.47237460300005],[-62.94506450999995,17.485384431000057],[-62.96525672899992,17.49891596300006],[-62.97725385399991,17.50413683800008],[-62.983796982999934,17.517682944000057],[-62.99714107999995,17.52562083500004]]]},"properties":{"featurecla":"Admin-1 states provinces","scalerank":10,"adm1_code":"NLD-5148","diss_me":5148,"ADM0_A3":"NL-BQ3","wikipedia":"http://en.wikipedia.org/wiki/Sint_Eustatius","iso_a2":"NL","adm0_sr":3,"NAME":"St. Eustatius","name_alt":null,"name_local":null,"type":"Bijzondere Gemeenten","type_en":"Special Municipality","code_local":null,"code_hasc":"BQ.SE","note":null,"hasc_maybe":null,"region":null,"region_cod":null,"provnum_ne":0,"gadm_level":0,"check_me":0,"datarank":10,"abbrev":null,"postal":null,"area_sqkm":0,"sameascity":-99,"labelrank":20,"name_len":13,"mapcolor9":2,"mapcolor13":0,"fips":null,"fips_alt":null,"woe_id":24549809,"woe_label":null,"woe_name":"St. Eustatius","latitude":17.4852,"longitude":-62.9719,"sov_a3":"NL1","adm0_a3":"NLBQ3","adm0_label":8,"admin":"Netherlands","geonunit":null,"gu_a3":"NLD","gn_id":7610359,"gn_name":"Sint Eustatius","gns_id":0,"gns_name":null,"gn_level":1,"gn_region":null,"gn_a1_code":"NL.SE","region_sub":null,"sub_code":null,"gns_level":0,"gns_lang":null,"gns_adm1":null,"gns_region":null,"min_label":11,"max_label":11,"min_zoom":8,"wikidataid":"Q26180","name_ar":"سينت أوستاتيوس","name_bn":"সিন্ট এউস্তাতিউস","name_de":"Sint Eustatius","name_en":"Sint Eustatius","name_es":"San Eustaquio","name_fr":"Saint-Eustache","name_el":"Άγιος Ευστάθιος","name_hi":"सिंट यूस्टेशियस","name_hu":"Sint Eustatius","name_id":"Sint Eustatius","name_it":"Sint Eustatius","name_ja":"シント・ユースタティウス島","name_ko":"신트외스타티위스섬","name_nl":"Sint Eustatius","name_pl":"Sint Eustatius","name_pt":"Santo Eustáquio","name_ru":"Синт-Эстатиус","name_sv":"Sint Eustatius","name_tr":"Sint Eustatius","name_vi":"Sint Eustatius","name_zh":"圣尤斯特歇斯","ne_id":1159316513,"name_he":"סנט אוסטטיוס","name_uk":"Сінт-Естатіус","name_ur":"سینٹ ایوسٹائیس","name_fa":"سینت یوستیشس","name_zht":"圣尤斯特歇斯","FCLASS_ISO":null,"FCLASS_US":null,"FCLASS_FR":null,"FCLASS_RU":null,"FCLASS_ES":null,"FCLASS_CN":null,"FCLASS_TW":null,"FCLASS_IN":null,"FCLASS_NP":null,"FCLASS_PK":null,"FCLASS_DE":null,"FCLASS_GB":null,"FCLASS_BR":null,"FCLASS_IL":null,"FCLASS_PS":null,"FCLASS_SA":null,"FCLASS_EG":null,"FCLASS_MA":null,"FCLASS_PT":null,"FCLASS_AR":null,"FCLASS_JP":null,"FCLASS_KO":null,"FCLASS_VN":null,"FCLASS_TR":null,"FCLASS_ID":null,"FCLASS_PL":null,"FCLASS_GR":null,"FCLASS_IT":null,"FCLASS_NL":null,"FCLASS_SE":null,"FCLASS_BD":null,"FCLASS_UA":null,"FCLASS_TLC":null}}
]}